[
  {
    "OBJECT_NAME": "STARLINK-4481",
    "OBJECT_ID": "2022-097AG",
    "EPOCH": "2026-07-23T05:55:58.844640",
    "MEAN_MOTION": 15.35399679,
    "ECCENTRICITY": 0.0001256,
    "INCLINATION": 53.1588,
    "RA_OF_ASC_NODE": 210.6939,
    "ARG_OF_PERICENTER": 73.8252,
    "MEAN_ANOMALY": 286.2889,
    "EPHEMERIS_TYPE": 0,
    "CLASSIFICATION_TYPE": "U",
    "NORAD_CAT_ID": 53418,
    "ELEMENT_SET_NO": 999,
    "REV_AT_EPOCH": 21932,
    "BSTAR": -0.000055398,
    "MEAN_MOTION_DOT": -0.00002312,
    "MEAN_MOTION_DDOT": 0
  }
]
