STARLINK-4481           
1 53418U 22097AG  26204.24720886 -.00002312  00000+0 -55398-4 0  9995
2 53418  53.1588 210.6939 0001255  73.8252 286.2889 15.35399679219320
